0 COSMOS 2011
1 19905U 89025D   13281.84784920  .00000018  00000-0  21545-3 0  2458
2 19905 074.0087 301.6803 0021933 284.2957 138.9687 12.52140717121992
0 COSMOS 2011
1 19905U 89025D   13284.17602887  .00000015  00000-0  20163-3 0  2461
2 19905 074.0084 298.5699 0021940 280.9121 193.5961 12.52140892122289
0 COSMOS 2011
1 19905U 89025D   13286.49251655 -.00000008  00000-0  53503-4 0  2470
2 19905 074.0082 295.4749 0021937 277.5022 195.5637 12.52141215122571
0 COSMOS 2011
1 19905U 89025D   13288.50210465 -.00000032  00000-0 -98338-4 0  2482
2 19905 074.0083 292.7897 0021936 274.6748 253.9994 12.52141382122826
0 COSMOS 2011
1 19905U 89025D   13290.72653020 -.00000020  00000-0 -21172-4 0  2497
2 19905 074.0086 289.8174 0021929 271.3256 201.0607 12.52141394123104
0 COSMOS 2011
1 19905U 89025D   13293.11226821 -.00000004  00000-0  76505-4 0  2501
2 19905 074.0089 286.6298 0021915 267.8959 155.1088 12.52141223123400
0 COSMOS 2011
1 19905U 89025D   13295.51887258  .00000011  00000-0  17496-3 0  2515
2 19905 074.0089 283.4145 0021912 264.3495 203.3005 12.52141046123701
